[{"OBJECT_NAME":"AETHER-2","OBJECT_ID":"2023-174AV","EPOCH":"2026-03-09T17:13:49.792224","MEAN_MOTION":15.33264165,"ECCENTRICITY":0.00086301,"INCLINATION":97.3931,"RA_OF_ASC_NODE":151.9008,"ARG_OF_PERICENTER":139.5247,"MEAN_ANOMALY":220.6639,"EPHEMERIS_TYPE":0,"CLASSIFICATION_TYPE":"U","NORAD_CAT_ID":58299,"ELEMENT_SET_NO":999,"REV_AT_EPOCH":12998,"BSTAR":0.00026165949,"MEAN_MOTION_DOT":8.341e-5,"MEAN_MOTION_DDOT":0},{"OBJECT_NAME":"STARLINK-33600","OBJECT_ID":"2025-015Q","EPOCH":"2026-03-09T22:06:30.472128","MEAN_MOTION":15.30210009,"ECCENTRICITY":0.00011171,"INCLINATION":53.1574,"RA_OF_ASC_NODE":321.5872,"ARG_OF_PERICENTER":118.8142,"MEAN_ANOMALY":241.2971,"EPHEMERIS_TYPE":0,"CLASSIFICATION_TYPE":"U","NORAD_CAT_ID":62772,"ELEMENT_SET_NO":999,"REV_AT_EPOCH":6451,"BSTAR":0.00081848206,"MEAN_MOTION_DOT":0.00023968,"MEAN_MOTION_DDOT":0}]
